0 NIMBUS 2 DEB
1 26669U 66040J   13283.21659535  .00003289  00000-0  47517-2 0  8502
2 26669 100.2841 004.8416 0042268 309.4452 074.0702 13.55869259656391
0 NIMBUS 2 DEB
1 26669U 66040J   13285.67985831  .00003022  00000-0  43687-2 0  8515
2 26669 100.2847 007.4081 0043351 302.6986 218.3320 13.55883512656730
0 NIMBUS 2 DEB
1 26669U 66040J   13289.19445135  .00003812  00000-0  54880-2 0  8529
2 26669 100.2857 011.0706 0045162 293.2989 094.6076 13.55907332657209
0 NIMBUS 2 DEB
1 26669U 66040J   13292.68855998  .00003777  00000-0  54321-2 0  8530
2 26669 100.2852 014.7123 0047194 284.3640 230.7900 13.55931335657680
0 NIMBUS 2 DEB
1 26669U 66040J   13295.17142059  .00004143  00000-0  59481-2 0  8545
2 26669 100.2846 017.2999 0048078 278.2354 110.6276 13.55948934658011
